{"fetched_at":"2026-05-26T21:48:54Z","count":12673,"tles":[{"name":"STARLINK-4325","line1":"1 53068U 22077AB  26145.46068929 -.00001438  00000+0 -95629-4 0  9994","line2":"2 53068  97.4460 326.5053 0001291  76.6529 283.4842 15.05661593212531","category":"Starlink"},{"name":"STARLINK-11171 [DTC]","line1":"1 60069U 24113L   26145.45283865  .00000613  00000+0  99117-5 0  9992","line2":"2 60069  53.1591 173.0916 0001056  71.0110 289.1023 15.69713651111615","category":"Starlink"},{"name":"ELECTRON R/B","line1":"1 64626U 25138F   25181.60997256  .03297959  24869-5  12609-2 0  9992","line2":"2 64626  97.4237 186.5515 0179629  21.1293 339.7765 15.96552279   608","category":"Other"},{"name":"FENGYUN 1C DEB","line1":"1 31064U 99025BFJ 26104.22490374  .00000604  00000+0  21815-3 0  9992","line2":"2 31064  98.5897  88.7894 0240859   5.7298   7.9749 14.22380529989968","category":"Weather"},{"name":"SPACEBEE-57","line1":"1 47465U 21006BE  23361.64422132  .00055540  00000+0  13566-2 0  9995","line2":"2 47465  97.3554  57.1043 0003774 116.7965 243.3668 15.40644742162218","category":"Other"},{"name":"STARLINK-6143","line1":"1 57133U 23090AJ  26145.44938320  .00000558  00000+0  29799-4 0  9991","line2":"2 57133  43.0032 189.7751 0001868 276.9826  83.0813 15.27576844162094","category":"Starlink"},{"name":"STARLINK-32864","line1":"1 62862U 25022J   26145.38574237  .00030687  00000+0  10438-2 0  9993","line2":"2 62862  53.1571 133.2849 0001174  89.3964 270.7171 15.30203901 73649","category":"Starlink"},{"name":"STARLINK-37248","line1":"1 68527U 26068V   26145.25225093  .00024098  00000+0  72197-3 0  9997","line2":"2 68527  53.1587 130.2676 0001036  49.4866 310.6227 15.34403888  8712","category":"Starlink"},{"name":"KUIPER-00166","line1":"1 65779U 25217T   26145.01357525 -.00000869  00000+0 -84939-4 0  9998","line2":"2 65779  51.9034  45.6360 0000782 104.3793 255.7257 14.79930676 36459","category":"Other"},{"name":"YZ-1 R/B","line1":"1 41929U 15019C   26106.08788910 -.00000902  00000+0  00000+0 0  9997","line2":"2 41929  12.7043  99.6658 6883151 302.6732 359.1130  0.27914110 10606","category":"Other"},{"name":"STARLINK-5094","line1":"1 53977U 22125P   26145.54766198 -.00001058  00000+0 -48368-4 0  9995","line2":"2 53977  53.2113 234.2030 0001243  84.2517 275.8617 15.08842409200996","category":"Starlink"},{"name":"FENGYUN 1C DEB","line1":"1 32156U 99025CTA 26101.25962082  .00000629  00000+0  24275-3 0  9995","line2":"2 32156  99.3635 285.2050 0082230  73.1762 287.8419 14.32218651665310","category":"Weather"},{"name":"STARLINK-2604","line1":"1 48374U 21038X   26145.58796216  .00001915  00000+0  73466-4 0  9997","line2":"2 48374  53.1607 350.1261 0001285  89.1472 270.9677 15.31699855279003","category":"Starlink"},{"name":"STARLINK-30710","line1":"1 57938U 23148D   26145.06126439  .00000962  00000+0  39613-4 0  9991","line2":"2 57938  53.1609  19.0782 0001200  84.6104 275.5035 15.34390234150255","category":"Starlink"},{"name":"IRIDIUM 33 DEB","line1":"1 35479U 97051PZ  23178.59252638  .00008702  00000+0  23983-2 0  9994","line2":"2 35479  86.3950 128.9543 0064054 238.5627 120.9303 14.45552683730501","category":"Other"},{"name":"CSG-2","line1":"1 51444U 22008A   26145.60410963  .00000578  00000+0  79177-4 0  9991","line2":"2 51444  97.8891 329.5296 0001440  88.2126 271.9252 14.82155599233245","category":"Other"},{"name":"STARLINK-31465","line1":"1 59012U 24036Q   26145.53210237 -.00000905  00000+0 -18448-4 0  9997","line2":"2 59012  53.1608  81.5199 0001116  97.2052 262.9076 15.30176660127084","category":"Starlink"},{"name":"FENGYUN 1C DEB","line1":"1 30728U 99025ASN 26104.74277968  .00000079  00000+0  50440-4 0  9990","line2":"2 30728  98.5299 112.7120 0099552  83.6368 277.6137 14.23527011994395","category":"Weather"},{"name":"FENGYUN 1C DEB","line1":"1 47012U 99025FAN 26104.90269404  .00000362  00000+0  36073-3 0  9998","line2":"2 47012  98.7407 338.8290 0163657  93.1523 268.8369 13.78052293562695","category":"Weather"},{"name":"STARLINK-6192","line1":"1 56903U 23083AD  26145.65540708 -.00000103  00000+0  57738-5 0  9991","line2":"2 56903  43.0059   6.9150 0001196 264.1546  95.9170 15.27575642163557","category":"Starlink"},{"name":"ONEWEB-0157","line1":"1 48055U 21025P   26145.22424622 -.00000216  00000+0 -62695-3 0  9995","line2":"2 48055  87.8951 324.7962 0001602 103.6702 256.4606 13.13468958250557","category":"Other"},{"name":"STARLINK-30342","line1":"1 57705U 23129H   23362.47053702  .00003789  00000+0  29548-3 0  9992","line2":"2 57705  43.0016 158.9951 0001525 290.1969  69.8710 15.02529274 19982","category":"Starlink"},{"name":"STARLINK-11362 [DTC]","line1":"1 61535U 24184D   26145.37565126  .00000594  00000+0  97622-5 0  9990","line2":"2 61535  53.1590 218.0872 0001135  87.3241 272.7907 15.69708717 92464","category":"Starlink"},{"name":"STARLINK-36488","line1":"1 67306U 26002B   26145.63662773  .00030056  00000+0  10965-2 0  9996","line2":"2 67306  42.9990 251.0010 0001582 266.1155  93.9516 15.27604629 22849","category":"Starlink"},{"name":"COSMOS 862","line1":"1 09495U 76105A   26080.28068858  .00000641  00000+0  00000+0 0  9996","line2":"2 09495  70.5006  42.1102 6268674 183.7336 167.5610  2.00630682239891","category":"Other"},{"name":"AEROCUBE 7","line1":"1 40966U 15058C   26144.83122257  .00003913  00000+0  31883-3 0  9992","line2":"2 40966  64.7631 317.9620 0119825  71.0717 290.3341 14.95524882362462","category":"Other"},{"name":"STARLINK-4572","line1":"1 53692U 22105AW  26145.40323944  .00030446  00000+0  12106-2 0  9990","line2":"2 53692  97.6101  33.4348 0002603  78.9815 281.1715 15.25234306205233","category":"Starlink"},{"name":"IRIDIUM 33 DEB","line1":"1 34868U 97051MN  23179.34045618  .00122484  00000+0  10061-1 0  9993","line2":"2 34868  86.5300 149.4293 0061041  55.3312 305.3650 14.97139670750782","category":"Other"},{"name":"ONEWEB-0412","line1":"1 50489U 21132W   26145.49365736  .00000049  00000+0  92506-4 0  9994","line2":"2 50489  87.9167 339.9731 0001951  79.5100 280.6252 13.18687684218669","category":"Other"},{"name":"STARLINK-31162","line1":"1 58791U 24012E   26145.55649590  .00000422  00000+0  24875-4 0  9997","line2":"2 58791  43.0042  90.9946 0001175 275.3753  84.6964 15.27577413132991","category":"Starlink"},{"name":"RASSVET-3 3","line1":"1 68362U 26061C   26145.15610945  .00035024  00000+0  37813-3 0  9997","line2":"2 68362  82.2972  38.4150 0002985 136.5478 223.6015 15.63466582  9897","category":"Other"},{"name":"GALAXY 12 (G-12)","line1":"1 27715U 03013B   23361.84578075 -.00000102  00000+0  00000+0 0  9990","line2":"2 27715   4.6784  79.5427 0002561 251.2137 174.7910  0.98983735 43033","category":"Other"},{"name":"STARLINK-1121","line1":"1 44929U 20001R   23362.14774886  .00025773  00000+0  21471-3 0  9993","line2":"2 44929  53.0564 322.8320 0001650 110.8780 249.2414 15.69956970219252","category":"Starlink"},{"name":"STARLINK-5738","line1":"1 55573U 23020E   26145.12467199  .00001838  00000+0  76330-4 0  9991","line2":"2 55573  43.0002 296.8544 0001208 272.0835  87.9878 15.27569831180566","category":"Starlink"},{"name":"STARLINK-35156","line1":"1 65607U 25207R   26145.43501550  .00002663  00000+0  18853-3 0  9995","line2":"2 65607  97.4472 214.0044 0002910 145.6353 214.5063 15.05654835 39817","category":"Starlink"},{"name":"LARES","line1":"1 38077U 12006A   26145.57638640 -.00000040  00000+0 -11852-4 0  9997","line2":"2 38077  69.4904 330.8680 0006731  53.5640 306.6006 12.54932082654234","category":"Other"},{"name":"STARLINK-4091","line1":"1 52830U 22062A   26145.42302034  .00005206  00000+0  34527-3 0  9992","line2":"2 52830  53.2135  49.8425 0001317  93.2105 266.9038 15.08807460217365","category":"Starlink"},{"name":"STARLINK-31919","line1":"1 59880U 24098Y   26145.43991560  .00001245  00000+0  54771-4 0  9997","line2":"2 59880  43.0008 204.5882 0001472 275.5307  84.5377 15.27577478113584","category":"Starlink"},{"name":"FENGYUN 1C DEB","line1":"1 30840U 99025AWA 26104.75047947  .00002315  00000+0  33895-3 0  9997","line2":"2 30840  98.0192 117.5566 0213237 343.7680  15.6761 14.62342216749283","category":"Weather"},{"name":"STARLINK-1877","line1":"1 47162U 20088AS  23362.17138877  .00019266  00000+0  13084-2 0  9997","line2":"2 47162  53.0547 304.2660 0001292  74.9768 285.1364 15.06409776171139","category":"Starlink"},{"name":"MUSAT1","line1":"1 56967U 23084AM  24344.62435562  .11629901  25836-5  10620-2 0  9999","line2":"2 56967  97.5165 115.3383 0011368 295.1782  64.8337 16.38772152 83571","category":"Other"},{"name":"FENGYUN 1C DEB","line1":"1 31804U 99025CGS 26095.23776259  .00006049  00000+0  29743-2 0  9999","line2":"2 31804  98.2866 260.4541 0139526 177.1337 183.0668 14.12997821652643","category":"Weather"},{"name":"STARLINK-2469","line1":"1 48128U 21027AN  26145.18858719  .00059021  00000+0  23800-2 0  9991","line2":"2 48128  53.0985 110.0347 0004044  37.3324 322.7954 15.24274962285048","category":"Starlink"},{"name":"STARLINK-30355","line1":"1 57777U 23134G   26145.63706124  .00001056  00000+0  47874-4 0  9998","line2":"2 57777  43.0011 123.4229 0001149 266.5136  93.5584 15.27579463151225","category":"Starlink"},{"name":"ONEWEB-0692","line1":"1 61600U 24188G   26145.40347749 -.00000089  00000+0 -28748-3 0  9992","line2":"2 61600  87.8909  25.6183 0001062  95.1569 264.9680 13.11418443 81481","category":"Other"},{"name":"SL-12 R/B(2)","line1":"1 11676U 75097F   26105.12720634  .00000136  00000+0  00000+0 0  9996","line2":"2 11676   2.5194 262.6316 0021262 223.4301 332.1540  1.00110909118502","category":"Other"},{"name":"STARLINK-4678","line1":"1 53780U 22111H   26145.66221317  .00000651  00000+0  58974-4 0  9994","line2":"2 53780  53.2130 288.7715 0001104  91.1850 268.9269 15.08837840205314","category":"Starlink"},{"name":"GHGSAT-C12","line1":"1 64529U 25135B   26145.60508796  .00003168  00000+0  14981-3 0  9994","line2":"2 64529  97.4720 260.6168 0003530 242.5178 117.5699 15.20110339 51397","category":"Other"}]}